NORAD_CAT_ID,OBJECT_NAME,OBJECT_TYPE,EPOCH,MEAN_MOTION,ECCENTRICITY,INCLINATION,RA_OF_ASC_NODE,ARG_OF_PERICENTER,MEAN_ANOMALY,BSTAR,MEAN_MOTION_DOT,MEAN_MOTION_DDOT,TLE_LINE0,TLE_LINE1,TLE_LINE2,SEMIMAJOR_AXIS,PERIOD,APOGEE,PERIGEE,DECAYED
51109.0,STARLINK-3358,PAYLOAD,2024-02-20 16:24:57,15.08839871,0.0001631,53.22,47.0503,98.5572,261.5605,-6.1899e-05,-1.273e-05,0.0,0 STARLINK-3358,1 51109U 22005F   24051.68400254 -.00001273  00000-0 -61899-4 0  9998,2 51109  53.2200  47.0503 0001631  98.5572 261.5605 15.08839871115727,6917.881,95.438,540.874,538.617,0.0
51109.0,STARLINK-3358,PAYLOAD,2024-02-21 03:32:39,15.08845218,0.0001633,53.2194,44.9688,101.4409,258.6767,7.4691e-05,9.01e-06,0.0,0 STARLINK-3358,1 51109U 22005F   24052.14767635  .00000901  00000-0  74691-4 0  9998,2 51109  53.2194  44.9688 0001633 101.4409 258.6767 15.08845218117139,6917.864,95.437,540.859,538.6,0.0
51109.0,STARLINK-3358,PAYLOAD,2024-02-21 06:43:25,15.08845607,0.0001633,53.2193,44.3738,100.6811,259.4365,7.6861e-05,9.36e-06,0.0,0 STARLINK-3358,1 51109U 22005F   24052.28015585  .00000936  00000-0  76861-4 0  9992,2 51109  53.2193  44.3738 0001633 100.6811 259.4365 15.08845607115814,6917.863,95.437,540.858,538.599,0.0
51109.0,STARLINK-3358,PAYLOAD,2024-02-21 16:15:44,15.08843065,0.0001467,53.2184,42.5884,92.7898,267.3262,3.7444e-05,3.08e-06,0.0,0 STARLINK-3358,1 51109U 22005F   24052.67759757  .00000308  00000-0  37444-4 0  9998,2 51109  53.2184  42.5884 0001467  92.7898 267.3262 15.08843065115873,6917.871,95.437,540.751,538.721,0.0
51109.0,STARLINK-3358,PAYLOAD,2024-02-22 03:23:27,15.08829387,0.000157,53.2189,40.5072,89.4401,270.6771,6.3145e-05,7.17e-06,0.0,0 STARLINK-3358,1 51109U 22005F   24053.14128797  .00000717  00000-0  63145-4 0  9996,2 51109  53.2189  40.5072 0001570  89.4401 270.6771 15.08829387117283,6917.913,95.438,540.864,538.692,0.0
51109.0,STARLINK-3358,PAYLOAD,2024-02-22 08:09:36,15.08835667,0.0001629,53.2198,39.6159,91.0965,269.0214,7.2794e-05,8.71e-06,0.0,0 STARLINK-3358,1 51109U 22005F   24053.34000473  .00000871  00000-0  72794-4 0  9999,2 51109  53.2198  39.6159 0001629  91.0965 269.0214 15.08835667115973,6917.894,95.438,540.886,538.632,0.0
51109.0,STARLINK-3358,PAYLOAD,2024-02-22 16:06:32,15.08837341,0.0001613,53.2197,38.1288,89.809,270.3087,7.0954e-05,8.41e-06,0.0,0 STARLINK-3358,1 51109U 22005F   24053.67120431  .00000841  00000-0  70954-4 0  9995,2 51109  53.2197  38.1288 0001613  89.8090 270.3087 15.08837341117365,6917.889,95.438,540.869,538.638,0.0
51109.0,STARLINK-3358,PAYLOAD,2024-02-23 03:14:13,15.08846535,0.0001634,53.2199,36.046,90.0778,270.0401,6.021e-05,6.7e-06,0.0,0 STARLINK-3358,1 51109U 22005F   24054.13487791  .00000670  00000-0  60210-4 0  9996,2 51109  53.2199  36.0460 0001634  90.0778 270.0401 15.08846535117436,6917.86,95.437,540.856,538.595,0.0
51109.0,STARLINK-3358,PAYLOAD,2024-02-23 06:24:59,15.08853021,0.0001488,53.2193,35.4498,87.2571,272.8592,4.5986e-05,4.44e-06,0.0,0 STARLINK-3358,1 51109U 22005F   24054.26735391  .00000444  00000-0  45986-4 0  9994,2 51109  53.2193  35.4498 0001488  87.2571 272.8592 15.08853021116113,6917.841,95.437,540.735,538.676,0.0
51109.0,STARLINK-3358,PAYLOAD,2024-02-23 22:18:51,15.0883425,0.0001728,53.2203,32.478,81.0559,279.0629,5.1304e-05,5.28e-06,0.0,0 STARLINK-3358,1 51109U 22005F   24054.92976613  .00000528  00000-0  51304-4 0  9995,2 51109  53.2203  32.4780 0001728  81.0559 279.0629 15.08834250116215,6917.898,95.438,540.958,538.568,0.0
51109.0,STARLINK-3358,PAYLOAD,2024-02-24 04:40:24,15.08835908,0.0001575,53.22,31.288,83.5077,276.6095,4.9373e-06,-2.09e-06,0.0,0 STARLINK-3358,1 51109U 22005F   24055.19472741 -.00000209  00000-0  49373-5 0  9999,2 51109  53.2200  31.2880 0001575  83.5077 276.6095 15.08835908117595,6917.893,95.438,540.847,538.668,0.0
51109.0,STARLINK-3358,PAYLOAD,2024-02-24 07:51:10,15.08840503,0.0001607,53.2202,30.6916,85.647,274.4706,3.9868e-05,3.47e-06,0.0,0 STARLINK-3358,1 51109U 22005F   24055.32720362  .00000347  00000-0  39868-4 0  9998,2 51109  53.2202  30.6916 0001607  85.6470 274.4706 15.08840503116272,6917.879,95.438,540.856,538.632,0.0
51109.0,STARLINK-3358,PAYLOAD,2024-02-24 22:09:38,15.08839915,0.0001488,53.2206,28.0162,85.1286,274.9876,3.3815e-05,2.5e-06,0.0,0 STARLINK-3358,1 51109U 22005F   24055.92336462  .00000250  00000-0  33815-4 0  9997,2 51109  53.2206  28.0162 0001488  85.1286 274.9876 15.08839915116365,6917.881,95.438,540.775,538.716,0.0
51109.0,STARLINK-3358,PAYLOAD,2024-02-25 04:31:10,15.08843227,0.0001204,53.219,26.8253,99.5201,260.5928,6.7199e-05,7.82e-06,0.0,0 STARLINK-3358,1 51109U 22005F   24056.18831993  .00000782  00000-0  67199-4 0  9997,2 51109  53.2190  26.8253 0001204  99.5201 260.5928 15.08843227117749,6917.871,95.437,540.568,538.903,0.0
51109.0,STARLINK-3358,PAYLOAD,2024-02-26 04:21:57,15.08848207,0.0001401,53.2181,22.3675,84.3959,275.7193,0.00019697,2.849e-05,0.0,0 STARLINK-3358,1 51109U 22005F   24057.18191410  .00002849  00000-0  19697-3 0  9996,2 51109  53.2181  22.3675 0001401  84.3959 275.7193 15.08848207116552,6917.855,95.437,540.689,538.751,0.0
51109.0,STARLINK-3358,PAYLOAD,2024-02-26 21:51:12,15.08836344,0.0001281,53.2186,19.0949,103.853,256.2604,3.4241e-05,2.57e-06,0.0,0 STARLINK-3358,1 51109U 22005F   24057.91056672  .00000257  00000-0  34241-4 0  9991,2 51109  53.2186  19.0949 0001281 103.8530 256.2604 15.08836344116664,6917.892,95.438,540.643,538.87,0.0
51109.0,STARLINK-3358,PAYLOAD,2024-02-27 02:37:22,15.08835886,0.0001546,53.2189,18.2027,107.5947,252.5214,2.509e-05,1.11e-06,0.0,0 STARLINK-3358,1 51109U 22005F   24058.10928789  .00000111  00000-0  25090-4 0  9991,2 51109  53.2189  18.2027 0001546 107.5947 252.5214 15.08835886118031,6917.893,95.438,540.827,538.688,0.0
51109.0,STARLINK-3358,PAYLOAD,2024-02-27 13:45:04,15.08842184,0.0001514,53.2193,16.1212,92.0873,268.0292,4.6667e-06,-2.14e-06,0.0,0 STARLINK-3358,1 51109U 22005F   24058.57296541 -.00000214  00000-0  46667-5 0  9995,2 51109  53.2193  16.1212 0001514  92.0873 268.0292 15.08842184116765,6917.874,95.437,540.786,538.691,0.0
51109.0,STARLINK-3358,PAYLOAD,2024-02-28 04:03:32,15.08846153,0.0001463,53.2193,13.4477,103.101,257.0146,-1.1351e-05,-4.69e-06,0.0,0 STARLINK-3358,1 51109U 22005F   24059.16912357 -.00000469  00000-0 -11351-4 0  9995,2 51109  53.2193  13.4477 0001463 103.1010 257.0146 15.08846153118193,6917.862,95.437,540.739,538.714,0.0
51109.0,STARLINK-3358,PAYLOAD,2024-02-28 13:35:51,15.08846851,0.0001473,53.2194,11.6632,101.0973,259.0185,-3.1313e-05,-7.86e-06,0.0,0 STARLINK-3358,1 51109U 22005F   24059.56656253 -.00000786  00000-0 -31313-4 0  9991,2 51109  53.2194  11.6632 0001473 101.0973 259.0185 15.08846851116911,6917.859,95.437,540.743,538.705,0.0
51109.0,STARLINK-3358,PAYLOAD,2024-02-29 03:54:20,15.08834247,0.0001617,53.2202,8.988,107.8828,252.234,9.6603e-05,1.25e-05,0.0,0 STARLINK-3358,1 51109U 22005F   24060.16273161  .00001250  00000-0  96603-4 0  9990,2 51109  53.2202   8.9880 0001617 107.8828 252.2340 15.08834247118341,6917.898,95.438,540.882,538.644,0.0
51109.0,STARLINK-3358,PAYLOAD,2024-02-29 13:26:38,15.08837391,0.0001649,53.2204,7.1995,89.205,270.9131,7.0654e-05,8.37e-06,0.0,0 STARLINK-3358,1 51109U 22005F   24060.56017191  .00000837  00000-0  70654-4 0  9991,2 51109  53.2204   7.1995 0001649  89.2050 270.9131 15.08837391117062,6917.888,95.438,540.894,538.613,0.0
51109.0,STARLINK-3358,PAYLOAD,2024-03-01 05:20:30,15.08842601,0.0001475,53.2197,4.226,85.9204,274.1957,1.9612e-05,2.4e-07,0.0,0 STARLINK-3358,1 51109U 22005F   24061.22257165  .00000024  00000-0  19612-4 0  9997,2 51109  53.2197   4.2260 0001475  85.9204 274.1957 15.08842601118509,6917.872,95.437,540.758,538.717,0.0
51109.0,STARLINK-3358,PAYLOAD,2024-03-01 13:17:25,15.08844218,0.0001482,53.2198,2.7392,85.3452,274.7709,1.6661e-05,-2.3e-07,0.0,0 STARLINK-3358,1 51109U 22005F   24061.55377017 -.00000023  00000-0  16661-4 0  9993,2 51109  53.2198   2.7392 0001482  85.3452 274.7709 15.08844218117210,6917.867,95.437,540.758,538.707,0.0
51109.0,STARLINK-3358,PAYLOAD,2024-03-02 03:35:53,15.08848025,0.0001529,53.2197,0.0632,85.1765,274.9402,0.00013223,1.818e-05,0.0,0 STARLINK-3358,1 51109U 22005F   24062.14992544  .00001818  00000-0  13223-3 0  9999,2 51109  53.2197   0.0632 0001529  85.1765 274.9402 15.08848025117306,6917.856,95.437,540.779,538.663,0.0
51109.0,STARLINK-3358,PAYLOAD,2024-03-03 01:51:17,15.08843381,0.0001279,53.2183,355.9012,99.0187,261.095,0.00013762,1.903e-05,0.0,0 STARLINK-3358,1 51109U 22005F   24063.07728528  .00001903  00000-0  13762-3 0  9994,2 51109  53.2183 355.9012 0001279  99.0187 261.0950 15.08843381118787,6917.87,95.437,540.62,538.85,0.0
51109.0,STARLINK-3358,PAYLOAD,2024-03-04 04:52:49,15.08859027,0.0001528,53.2197,350.8425,105.2592,254.8569,7.4666e-05,9.01e-06,0.0,0 STARLINK-3358,1 51109U 22005F   24064.20335371  .00000901  00000-0  74666-4 0  9998,2 51109  53.2197 350.8425 0001528 105.2592 254.8569 15.08859027118950,6917.822,95.436,540.744,538.63,0.0
51109.0,STARLINK-3358,PAYLOAD,2024-03-04 22:22:06,15.08784034,0.0002407,53.2187,347.5669,132.792,227.3274,0.00067198,0.00010406,0.0,0 STARLINK-3358,1 51109U 22005F   24064.93201702  .00010406  00000-0  67198-3 0  9990,2 51109  53.2187 347.5669 0002407 132.7920 227.3274 15.08784034117726,6918.051,95.441,541.582,538.251,0.0
51109.0,STARLINK-3358,PAYLOAD,2024-03-05 01:32:52,15.08827907,0.0001207,53.2195,346.9819,88.7173,271.3958,-0.00013682,-2.464e-05,0.0,0 STARLINK-3358,1 51109U 22005F   24065.06450112 -.00002464  00000-0 -13682-3 0  9992,2 51109  53.2195 346.9819 0001207  88.7173 271.3958 15.08827907119088,6917.917,95.438,540.617,538.947,0.0
51109.0,STARLINK-3358,PAYLOAD,2024-03-05 19:02:07,15.08832063,0.0001089,53.219,343.7073,89.0615,271.0502,6.2244e-05,7.03e-06,0.0,0 STARLINK-3358,1 51109U 22005F   24065.79313694  .00000703  00000-0  62244-4 0  9996,2 51109  53.2190 343.7073 0001089  89.0615 271.0502 15.08832063119196,6917.905,95.438,540.523,539.016,0.0
